{
"type": "FeatureCollection",
"name": "neighborhoods",
"crs": { "type": "name", "properties": { "name": "urn:ogc:def:crs:OGC:1.3:CRS84" } },
"features": [
{ "type": "Feature", "properties": { "neighborhood_id": "N001", "name": "春华片区", "population": 8200, "demand_score": 0.45 }, "geometry": { "type": "Polygon", "coordinates": [ [ [ 121.443, 31.217 ], [ 121.443, 31.223 ], [ 121.437, 31.223 ], [ 121.437, 31.217 ], [ 121.443, 31.217 ] ] ] } },
{ "type": "Feature", "properties": { "neighborhood_id": "N002", "name": "江景片区", "population": 11600, "demand_score": 0.62 }, "geometry": { "type": "Polygon", "coordinates": [ [ [ 121.463, 31.217 ], [ 121.463, 31.223 ], [ 121.457, 31.223 ], [ 121.457, 31.217 ], [ 121.463, 31.217 ] ] ] } },
{ "type": "Feature", "properties": { "neighborhood_id": "N003", "name": "书院片区", "population": 7400, "demand_score": 0.51 }, "geometry": { "type": "Polygon", "coordinates": [ [ [ 121.443, 31.237 ], [ 121.443, 31.243 ], [ 121.437, 31.243 ], [ 121.437, 31.237 ], [ 121.443, 31.237 ] ] ] } },
{ "type": "Feature", "properties": { "neighborhood_id": "N004", "name": "新城片区", "population": 15300, "demand_score": 0.91 }, "geometry": { "type": "Polygon", "coordinates": [ [ [ 121.463, 31.237 ], [ 121.463, 31.243 ], [ 121.457, 31.243 ], [ 121.457, 31.237 ], [ 121.463, 31.237 ] ] ] } }
]
}
